NUSAT-1 (FRESCO)        
1 41557U 16033B   22201.56233466  .00013574  00000+0  39647-3 0  9998
2 41557  97.3898 299.3318 0009121 253.4095 202.1864 15.35388616342462
BEESAT-4                
1 41619U 16040W   22201.37213109  .00018283  00000+0  59371-3 0  9994
2 41619  97.2144 251.1343 0009019  11.0158 349.1280 15.31948144325764
CAS-2T & KS-1Q          
1 41847U 16066G   22201.45051272  .00001399  00000+0  21723-3 0  9995
2 41847  98.5493 266.0831 0364775 111.1504 252.9071 14.38651707299092
NAYIF-1 (EO-88)         
1 42017U 17008BX  22201.09217477  .00021896  00000+0  63413-3 0  9999
2 42017  97.2667 266.7483 0006515 122.7631 237.4242 15.35570327302083
ZHUHAI-1 02 (CAS-4B)    
1 42759U 17034B   22201.35216513  .00003300  00000+0  20103-3 0  9999
2 42759  43.0160 151.3352 0007817 140.6765 357.3680 15.12098449281337
ZHUHAI-1 01 (CAS-4A)    
1 42761U 17034D   22201.58987350  .00003624  00000+0  21890-3 0  9994
2 42761  43.0167 148.7895 0008191 145.1492  23.9064 15.12189102281375
MAX VALIER SAT          
1 42778U 17036P   22201.08374296  .00010187  00000+0  38096-3 0  9996
2 42778  97.2028 241.0688 0010102 199.9407 160.1439 15.27470004281881
RADFXSAT (FOX-1B)       
1 43017U 17073E   22201.46770697  .00005367  00000+0  40049-3 0  9996
2 43017  97.6712  94.3072 0249612  79.7912 283.1348 14.81600418252004
FOX-1D (AO-92)          
1 43137U 18004AC  22201.45784788  .00011461  00000+0  39750-3 0  9998
2 43137  97.3672 276.3267 0006227 236.4030 123.6616 15.29947980251391
DIWATA-2B               
1 43678U 18084H   22201.57547059  .00000492  00000+0  53983-4 0  9994
2 43678  97.9758 335.2373 0009923 168.6008 191.5430 14.92217007202799
ES'HAIL 2               
1 43700U 18090A   22201.51625365  .00000140  00000+0  00000+0 0  9995
2 43700   0.0147  76.4181 0001475  81.2947 352.1644  1.00273488 13364
FOX-1CLIFF (AO-95)      
1 43770U 18099N   22201.42059128  .00002633  00000+0  23584-3 0  9994
2 43770  97.6194 266.9150 0014600 159.0087 201.1737 14.96582287197942
ITASAT 1                
1 43786U 18099AE  22201.41086507  .00003281  00000+0  29155-3 0  9991
2 43786  97.6223 267.8418 0015699 151.6432 208.5647 14.96710318197983
JY1SAT (JO-97)          
1 43803U 18099AX  22201.41745007  .00003412  00000+0  29893-3 0  9993
2 43803  97.6186 267.6127 0015465 150.7510 209.4582 14.97238892198009
UWE-4                   
1 43880U 18111E   22201.46005917  .00002960  00000+0  25330-3 0  9996
2 43880  97.6643 107.1960 0011238 206.2575 153.8079 14.98311561194642
NEXUS (FO-99)           
1 43937U 19003F   22201.37123834  .00017439  00000+0  57253-3 0  9995
2 43937  97.1285 233.4507 0021215  41.2770 319.0071 15.31419944195014
PSAT2 (NO-104)          
1 44354U 19036R   22201.60989552  .00052244 -56974-5  43454-3 0  9997
2 44354  28.5251 307.8626 0218168 345.7035  13.7467 15.43221909169808
JAISAT-1                
1 44419U 19038F   22201.47195865  .00010442  00000+0  51731-3 0  9995
2 44419  97.6368 171.8722 0019737  22.8389 337.3718 15.17786475168064
DUCHIFAT-3              
1 44854U 19089C   22201.49784306  .00003597  00000+0  28041-3 0  9991
2 44854  36.9666 264.4197 0007059 130.6442 229.4933 15.01272377142900
CAS-6 (TO-108)          
1 44881U 19093C   22201.53284479  .00000629  00000+0  86292-4 0  9993
2 44881  97.8926 280.2672 0016479  79.6039 280.7040 14.81763339139678
RS-44 & BREEZE-KM R/B   
1 44909U 19096E   22201.49623118  .00000003  00000+0 -24538-4 0  9991
2 44909  82.5197 208.3228 0216295 242.3458 115.5541 12.79713968119734
ORBITAL FACTORY 2 (OF-2)
1 45113U 19071C   22201.52566309  .00026560  00000+0  52385-3 0  9999
2 45113  51.6369 256.4671 0009694 302.4620  57.5430 15.46950102138494
HUSKYSAT-1 (HO-107)     
1 45119U 19071J   22201.42364289  .00027493  00000+0  56296-3 0  9998
2 45119  51.6370 257.2580 0009348 297.4871  62.5166 15.45841243138460
BY70-2                  
1 45857U 20042B   22201.55492240  .00006913  00000+0  91543-3 0  9998
2 45857  97.9551 278.0848 0010386  20.1198 340.0433 14.80180242110350
SALSAT                  
1 46495U 20068K   22201.41605586  .00002011  00000+0  14721-3 0  9997
2 46495  97.7297 142.7315 0016990 159.8408 200.3493 15.04633761 99144
BY70-3                  
1 46839U 20079N   22201.59697267  .00024297  00000+0  54713-3 0  9992
2 46839  97.1964 273.2796 0005222 193.7054 302.3571 15.43265280 95353
RADFXSAT-2 (AO-109)     
1 47311U 21002C   22201.43656335  .00008989  00000+0  35769-3 0  9999
2 47311  60.6845 238.0439 0022718   3.8533 356.2726 15.25737077 83509
UVSQ-SAT                
1 47438U 21006AB  22201.41790489  .00007832  00000+0  40988-3 0  9995
2 47438  97.4350 259.7542 0012725 153.6641 206.5241 15.16033730 82271
DIY-1 (ARDUIQUBE)       
1 47963U 21022AH  22201.52682418  .00018932  00000+0  10292-2 0  9997
2 47963  97.5289 102.5159 0017603  25.5529 334.6569 15.14396903 71958
XW-3 (CAS-9)            
1 50466U 21131B   22201.55930776  .00000188  00000+0  76083-4 0  9992
2 50466  98.5801 278.7971 0005515  61.8010 298.3733 14.38510613 29678
TEVEL-3                 
1 50988U 22002E   22201.45908630  .00007188  00000+0  39033-3 0  9992
2 50988  97.4795 267.8937 0008115 316.5195 100.8366 15.14797289 28412
TEVEL-8                 
1 50989U 22002F   22201.46511841  .00007067  00000+0  38441-3 0  9996
2 50989  97.4815 267.9208 0008208 315.5737 100.6608 15.14744210 28415
TEVEL-5                 
1 50998U 22002Q   22201.46125140  .00007214  00000+0  38635-3 0  9998
2 50998  97.4796 268.0057 0009563 310.4126  62.1697 15.15279302 28425
TEVEL-6                 
1 50999U 22002R   22201.46077907  .00007160  00000+0  38347-3 0  9996
2 50999  97.4795 268.0041 0009500 309.6896  62.7148 15.15283193 28423
TEVEL-1                 
1 51013U 22002AF  22201.46187709  .00007114  00000+0  38664-3 0  9997
2 51013  97.4792 267.8778 0008065 316.3838 101.3024 15.14772081 28418
TEVEL-7                 
1 51062U 22002CG  22201.40119479  .00006961  00000+0  37880-3 0  9992
2 51062  97.4809 267.8459 0008059 315.1813 104.4706 15.14732941 28401
TEVEL-4                 
1 51063U 22002CH  22201.46725759  .00007044  00000+0  38336-3 0  9993
2 51063  97.4816 267.9088 0008109 314.4518 101.7238 15.14726106 28416
TEVEL-2                 
1 51069U 22002CP  22201.39475958  .00007066  00000+0  38387-3 0  9994
2 51069  97.4790 267.8178 0007913 316.3919 104.0514 15.14787846 28400
